ORBCOMM FM20            
1 25416U 98046D   24121.98417902  .00001490  00000+0  56577-3 0  9991
2 25416  44.9948 330.2968 0000119  39.8738 320.2117 14.35170488345041
ORBCOMM FM16            
1 25417U 98046E   24121.87975407  .00002248  00000+0  81241-3 0  9997
2 25417  44.9957 326.6316 0003620  28.6236 331.4809 14.36135937344926
ORBCOMM FM15            
1 25418U 98046F   24122.25195443  .00001918  00000+0  70417-3 0  9991
2 25418  44.9978 328.9094 0003176  33.5646 326.5402 14.35867084345158
ORBCOMM FM14            
1 25419U 98046G   24122.31048678  .00001961  00000+0  71667-3 0  9992
2 25419  44.9965 327.7604 0001932  22.8179 146.7861 14.36028788345173
ORBCOMM FM13            
1 25420U 98046H   24121.90122996  .00001697  00000+0  63554-3 0  9996
2 25420  44.9979 334.5130 0004367   8.6208 351.4714 14.35317728343950
ORBCOMM FM21            
1 25475U 98053A   24122.12984286  .00001626  00000+0  61156-3 0  9995
2 25475  45.0087  57.7359 0002068 324.3581  35.7128 14.35258224338339
ORBCOMM FM22            
1 25476U 98053B   24122.11087963  .00001715  00000+0  63597-3 0  9991
2 25476  45.0081  55.1501 0003567 319.5900  40.4682 14.35779319338354
ORBCOMM FM23            
1 25477U 98053C   24121.53191896  .00001793  00000+0  66883-3 0  9995
2 25477  45.0086  62.9877 0003109 314.5293  45.5300 14.35298909338370
